STARLINK-31973          
1 59943U 24106X   26068.12201786 -.00001228  00000+0 -35144-4 0  9997
2 59943  43.0021 335.9351 0000602 246.2423 113.8366 15.27567779100434
TEVEL2-1                
1 63217U 25052H   26068.64782323  .00020683  00000+0  70600-3 0  9994
2 63217  97.3991 324.7682 0004767 104.8919 255.2849 15.30341923 54855
