[{"OBJECT_NAME":"STARLINK-31973","OBJECT_ID":"2024-106X","EPOCH":"2026-03-09T02:55:42.343104","MEAN_MOTION":15.27567779,"ECCENTRICITY":6.024e-5,"INCLINATION":43.0021,"RA_OF_ASC_NODE":335.9351,"ARG_OF_PERICENTER":246.2423,"MEAN_ANOMALY":113.8366,"EPHEMERIS_TYPE":0,"CLASSIFICATION_TYPE":"U","NORAD_CAT_ID":59943,"ELEMENT_SET_NO":999,"REV_AT_EPOCH":10043,"BSTAR":-3.5143524e-5,"MEAN_MOTION_DOT":-1.228e-5,"MEAN_MOTION_DDOT":0},{"OBJECT_NAME":"TEVEL2-1","OBJECT_ID":"2025-052H","EPOCH":"2026-03-09T15:32:51.927072","MEAN_MOTION":15.30341923,"ECCENTRICITY":0.0004767,"INCLINATION":97.3991,"RA_OF_ASC_NODE":324.7682,"ARG_OF_PERICENTER":104.8919,"MEAN_ANOMALY":255.2849,"EPHEMERIS_TYPE":0,"CLASSIFICATION_TYPE":"U","NORAD_CAT_ID":63217,"ELEMENT_SET_NO":999,"REV_AT_EPOCH":5485,"BSTAR":0.000706,"MEAN_MOTION_DOT":0.00020683,"MEAN_MOTION_DDOT":0}]
